TYVAK-0173              
1 48892U 21059P   26193.18105856  .00000858  00000+0  11223-3 0  9995
2 48892  96.0075 263.3250 0007446 312.4710  47.5878 14.81965976271948
MANDRAKE 2 ABLE         
1 48907U 21059AE  26192.49120500  .00013740  00000+0  19929-3 0  9993
2 48907  97.7028  24.1464 0003585 249.8894 110.1974 15.55966110280900
MANDRAKE 2 BAKER        
1 48908U 21059AF  26192.99058349  .00017623  00000+0  21252-3 0  9996
2 48908  97.6991  27.7341 0002496 232.1572 127.9459 15.60847202281169
PACE-1                  
1 48909U 21059AG  26191.99959182  .00083467  00000+0  36330-3 0  9993
2 48909  97.6745  32.9101 0003234 192.6042 167.5147 15.84551910281564
YAM-3                   
1 48915U 21059AN  26193.26392413  .00007232  00000+0  13505-3 0  9995
2 48915  97.6992  21.8683 0003816 257.2085 102.8739 15.49103043280871
FARADAY_PHOENIX         
1 48924U 21059AX  26193.19849559  .00141630  00000+0  56676-3 0  9992
2 48924  97.6778  34.1555 0005888 206.2893 153.8079 15.86139540281618
DEMO8 (TENZING)         
1 48951U 21059CA  26193.00890058  .00013446  00000+0  19518-3 0  9999
2 48951  97.7017  28.3352 0005575 245.6215 114.4457 15.55941011281166
FENGYUN 3E              
1 49008U 21062A   26193.28790551  .00000204  00000+0  11677-3 0  9990
2 49008  98.7500 196.4161 0002389  44.6156 315.5212 14.19906471260142
ISS (NAUKA)             
1 49044U 21066A   26193.15356419  .00004878  00000+0  96681-4 0  9991
2 49044  51.6303 176.5328 0006700 285.7692  74.2557 15.48987212610706
STARLINK-3100           
1 49144U 21082Q   26192.80822423 -.00000036  00000+0  47717-5 0  9994
2 49144  69.9999 341.4987 0003447 274.4329  85.6436 14.98332551264577
CUTE                    
1 49263U 21088D   26193.27225024  .01203122  96610-3  11367-2 0  9994
2 49263  97.3997 295.2353 0006640 305.9522  54.1146 16.12201761266564
2021-091B               
1 49316U 21091B   26193.29643868  .00001406  00000+0  71030-4 0  9998
2 49316  97.4479  20.4908 0012224 319.5709  40.4616 15.18672901262790
SDGSAT 1                
1 49387U 21100A   26193.32594291  .00002131  00000+0  10417-3 0  9993
2 49387  97.2625 239.3141 0009460 172.8428 187.2944 15.19230903259732
TEIKYOSAT-4 (OORURI)    
1 49396U 21102B   26192.64682293  .00000961  00000+0  63567-4 0  9993
2 49396  97.3665 221.1793 0011398 201.2231 158.8527 15.09590713256411
Z-SAT                   
1 49399U 21102E   26193.24109902  .00003418  00000+0  16855-3 0  9991
2 49399  97.3318 227.8045 0017285 154.3236 205.8861 15.18449963257242
HIBARI                  
1 49400U 21102F   26193.08782139  .00007172  00000+0  23231-3 0  9992
2 49400  97.3229 238.7127 0013321 110.8335 249.4335 15.32235957258009
KOSEN-1                 
1 49402U 21102H   26193.17401330  .00004393  00000+0  16706-3 0  9996
2 49402  97.3174 234.8487 0015299 117.0746 243.2057 15.27185924257832
GLOBAL-14               
1 49469U 21106A   26193.19665729  .00016087  00000+0  26617-3 0  9994
2 49469  42.0026 142.3164 0017290 204.0869 155.9168 15.51722687262017
GAOFEN-3 02             
1 49495U 21109A   26193.30244965  .00000084  00000+0  38680-4 0  9998
2 49495  98.4094 201.0425 0001351 284.5462  75.5578 14.42220128243936
GLOBAL-12               
1 49772U 21115BA  26192.89253342  .00020567  00000+0  30550-3 0  9990
2 49772  53.1953 285.6118 0002782  67.0042 293.1263 15.55189434259744
GLOBAL-13               
1 49773U 21115BB  26192.61248647  .00011770  00000+0  23739-3 0  9990
2 49773  53.1984 298.3929 0000994 153.6296 206.4764 15.47016684259544
GLOBAL-17               
1 49949U 21120A   26193.29948695  .00017324  00000+0  26800-3 0  9999
2 49949  41.9944 259.5052 0013429  68.1914 292.0359 15.53615058258806
GLOBAL-16               
1 49950U 21120B   26192.63961317  .00015125  00000+0  25460-3 0  9992
2 49950  41.9948 267.6481 0011712  52.1360 308.0542 15.51370265258649
XW-3 (CAS-9)            
1 50466U 21131B   26193.32298833  .00000056  00000+0  31010-4 0  9997
2 50466  98.4985 285.5771 0004739  38.2206 321.9318 14.41379736238730
ION SCV-004             
1 50993U 22002K   26193.01270538  .00003199  00000+0  11036-3 0  9994
2 50993  97.2824 250.2064 0005580 261.9472  98.1136 15.30688886249093
ETV-A1                  
1 51060U 22002CE  26193.27459493  .00006975  00000+0  17010-3 0  9990
2 51060  97.2873 259.5141 0003676 239.5804 120.5080 15.41193977249705
BRO-5                   
1 51061U 22002CF  26193.26633794  .00019308  00000+0  36097-3 0  9998
2 51061  97.2993 267.1795 0005066 214.6604 145.4318 15.48763628250138
LUDI TANCE 1-01A (L-SA*)
1 51284U 22007A   26193.32400616  .00000304  00000+0  38664-4 0  9991
2 51284  97.8110 200.3870 0001612  91.2933 268.8469 14.88417382242215
LUDI TANCE 1-01B (L-SA*)
1 51822U 22018A   26193.29038844  .00000330  00000+0  41474-4 0  9999
2 51822  97.8109 200.3519 0001629  91.4299 268.7104 14.88411904237444
