OBJECT_NAME,OBJECT_ID,EPOCH,MEAN_MOTION,ECCENTRICITY,INCLINATION,RA_OF_ASC_NODE,ARG_OF_PERICENTER,MEAN_ANOMALY,EPHEMERIS_TYPE,CLASSIFICATION_TYPE,NORAD_CAT_ID,ELEMENT_SET_NO,REV_AT_EPOCH,BSTAR,MEAN_MOTION_DOT,MEAN_MOTION_DDOT
TYVAK-0173,2021-059P,2026-07-12T04:20:43.459584,14.81965976,.00074461,96.0075,263.3250,312.4710,47.5878,0,U,48892,999,27194,.11222947E-3,.858E-5,0
MANDRAKE 2 ABLE,2021-059AE,2026-07-11T11:47:20.112000,15.55966110,.00035855,97.7028,24.1464,249.8894,110.1974,0,U,48907,999,28090,.19929112E-3,.1374E-3,0
MANDRAKE 2 BAKER,2021-059AF,2026-07-11T23:46:26.413536,15.60847202,.00024965,97.6991,27.7341,232.1572,127.9459,0,U,48908,999,28116,.21251615E-3,.17623E-3,0
PACE-1,2021-059AG,2026-07-10T23:59:24.733248,15.84551910,.00032347,97.6745,32.9101,192.6042,167.5147,0,U,48909,999,28156,.36329564E-3,.83467E-3,0
YAM-3,2021-059AN,2026-07-12T06:20:03.044832,15.49103043,.0003816,97.6992,21.8683,257.2085,102.8739,0,U,48915,999,28087,.13504887E-3,.7232E-4,0
FARADAY_PHOENIX,2021-059AX,2026-07-12T04:45:50.018976,15.86139540,.00058882,97.6778,34.1555,206.2893,153.8079,0,U,48924,999,28161,.56676244E-3,.14163E-2,0
DEMO8 (TENZING),2021-059CA,2026-07-12T00:12:49.010112,15.55941011,.00055755,97.7017,28.3352,245.6215,114.4457,0,U,48951,999,28116,.1951827E-3,.13446E-3,0
FENGYUN 3E,2021-062A,2026-07-12T06:54:35.036064,14.19906471,.0002389,98.7500,196.4161,44.6156,315.5212,0,U,49008,999,26014,.11676533E-3,.204E-5,0
ISS (NAUKA),2021-066A,2026-07-12T03:41:07.946016,15.48987212,.00067009,51.6303,176.5328,285.7692,74.2557,0,U,49044,999,61070,.96681198E-4,.4878E-4,0
STARLINK-3100,2021-082Q,2026-07-11T19:23:50.573472,14.98332551,.00034477,69.9999,341.4987,274.4329,85.6436,0,U,49144,999,26457,.4771669E-5,-.36E-6,0
CUTE,2021-088D,2026-07-12T06:32:02.420736,16.12201761,.00066401,97.3997,295.2353,305.9522,54.1146,0,U,49263,999,26656,.11367282E-2,.1203122E-1,.96610414E-3
2021-091B,2021-091B,2026-07-12T07:06:52.301952,15.18672901,.00122248,97.4479,20.4908,319.5709,40.4616,0,U,49316,999,26279,.71030114E-4,.1406E-4,0
SDGSAT 1,2021-100A,2026-07-12T07:49:21.467424,15.19230903,.00094603,97.2625,239.3141,172.8428,187.2944,0,U,49387,999,25973,.10416837E-3,.2131E-4,0
TEIKYOSAT-4 (OORURI),2021-102B,2026-07-11T15:31:25.501152,15.09590713,.00113984,97.3665,221.1793,201.2231,158.8527,0,U,49396,999,25641,.63567447E-4,.961E-5,0
Z-SAT,2021-102E,2026-07-12T05:47:10.955328,15.18449963,.0017285,97.3318,227.8045,154.3236,205.8861,0,U,49399,999,25724,.16855222E-3,.3418E-4,0
HIBARI,2021-102F,2026-07-12T02:06:27.768096,15.32235957,.00133211,97.3229,238.7127,110.8335,249.4335,0,U,49400,999,25800,.23231463E-3,.7172E-4,0
KOSEN-1,2021-102H,2026-07-12T04:10:34.749120,15.27185924,.00152999,97.3174,234.8487,117.0746,243.2057,0,U,49402,999,25783,.16706378E-3,.4393E-4,0
GLOBAL-14,2021-106A,2026-07-12T04:43:11.189856,15.51722687,.00172901,42.0026,142.3164,204.0869,155.9168,0,U,49469,999,26201,.26617253E-3,.16087E-3,0
GAOFEN-3 02,2021-109A,2026-07-12T07:15:31.649760,14.42220128,.00013512,98.4094,201.0425,284.5462,75.5578,0,U,49495,999,24393,.38680186E-4,.84E-6,0
GLOBAL-12,2021-115BA,2026-07-11T21:25:14.887488,15.55189434,.00027827,53.1953,285.6118,67.0042,293.1263,0,U,49772,999,25974,.30549526E-3,.20567E-3,0
GLOBAL-13,2021-115BB,2026-07-11T14:41:58.831008,15.47016684,.00009942,53.1984,298.3929,153.6296,206.4764,0,U,49773,999,25954,.23738952E-3,.1177E-3,0
GLOBAL-17,2021-120A,2026-07-12T07:11:15.672480,15.53615058,.00134292,41.9944,259.5052,68.1914,292.0359,0,U,49949,999,25880,.26799937E-3,.17324E-3,0
GLOBAL-16,2021-120B,2026-07-11T15:21:02.577888,15.51370265,.00117129,41.9948,267.6481,52.1360,308.0542,0,U,49950,999,25864,.25460087E-3,.15125E-3,0
XW-3 (CAS-9),2021-131B,2026-07-12T07:45:06.191712,14.41379736,.0004739,98.4985,285.5771,38.2206,321.9318,0,U,50466,999,23873,.31009647E-4,.56E-6,0
ION SCV-004,2022-002K,2026-07-12T00:18:17.744832,15.30688886,.00055803,97.2824,250.2064,261.9472,98.1136,0,U,50993,999,24909,.11035556E-3,.3199E-4,0
ETV-A1,2022-002CE,2026-07-12T06:35:25.001952,15.41193977,.00036766,97.2873,259.5141,239.5804,120.5080,0,U,51060,999,24970,.17009837E-3,.6975E-4,0
BRO-5,2022-002CF,2026-07-12T06:23:31.598016,15.48763628,.00050665,97.2993,267.1795,214.6604,145.4318,0,U,51061,999,25013,.36097099E-3,.19308E-3,0
LUDI TANCE 1-01A (L-SAR 01A),2022-007A,2026-07-12T07:46:34.132224,14.88417382,.00016127,97.8110,200.3870,91.2933,268.8469,0,U,51284,999,24221,.38663553E-4,.304E-5,0
LUDI TANCE 1-01B (L-SAR 01B),2022-018A,2026-07-12T06:58:09.561216,14.88411904,.00016298,97.8109,200.3519,91.4299,268.7104,0,U,51822,999,23744,.41473844E-4,.33E-5,0
